OBJECT_NAME,OBJECT_ID,EPOCH,MEAN_MOTION,ECCENTRICITY,INCLINATION,RA_OF_ASC_NODE,ARG_OF_PERICENTER,MEAN_ANOMALY,EPHEMERIS_TYPE,CLASSIFICATION_TYPE,NORAD_CAT_ID,ELEMENT_SET_NO,REV_AT_EPOCH,BSTAR,MEAN_MOTION_DOT,MEAN_MOTION_DDOT
POLYITAN-1,2014-033AJ,2026-07-17T14:01:25.438944,15.34270589,.0007692,98.0931,227.7445,57.2583,302.9398,0,U,40042,999,65825,.3009E-3,.9903E-4,0
TIGRISAT,2014-033AK,2026-07-17T08:46:30.769824,14.85252924,.0048463,97.7867,347.6934,337.1451,22.7607,0,U,40043,999,65010,.84001E-4,.68E-5,0
AEROCUBE 6A,2014-033AM,2026-07-16T22:39:14.285376,14.98354655,.0036191,97.7255,4.5832,274.9272,84.7819,0,U,40045,999,65107,.2714E-3,.3216E-4,0
AEROCUBE 6B,2014-033AN,2026-07-17T22:01:59.462112,14.99812369,.00381291,97.7206,5.3999,260.4771,99.2142,0,U,40046,999,65136,.2106968E-3,.2584E-4,0
CANX-4,2014-034C,2026-07-17T14:47:58.083072,14.81313347,.0011375,98.3079,75.0414,274.1361,85.8550,0,U,40055,999,64903,.53443E-4,.36E-5,0
CANX-5,2014-034D,2026-07-17T21:14:16.437408,14.81331073,.00113731,98.3082,75.3648,273.4315,86.5595,0,U,40056,999,63988,.56070015E-4,.38E-5,0
UKUBE-1,2014-037F,2026-07-17T23:18:28.836576,15.13974447,.00031923,98.4244,205.4889,83.1605,276.9987,0,U,40074,999,65321,.26497996E-3,.4729E-4,0
BRITE-PL2 (HEWELIUSZ),2014-049B,2026-07-17T20:00:50.097024,14.94690566,.00140762,97.9121,311.0758,13.6033,346.5563,0,U,40119,999,64602,.57608523E-4,.566E-5,0
AEROCUBE 5C,2015-058B,2026-07-17T01:48:10.725696,14.91582977,.013248,64.7659,169.5989,51.7262,309.5681,0,U,40965,999,37011,.15601E-3,.1675E-4,0
AEROCUBE 7,2015-058C,2026-07-17T22:06:49.502592,14.95929594,.01222337,64.7616,148.5335,49.7238,311.4486,0,U,40966,999,37055,.22814433E-3,.2793E-4,0
FOX-1A (AO-85),2015-058D,2026-07-17T22:29:39.229440,14.91098155,.01325843,64.7725,183.4108,44.7716,316.4004,0,U,40967,999,11815,.15531392E-3,.1644E-4,0
SINOD-D 1,2015-058E,2026-07-17T21:29:50.664192,14.96103838,.01212805,64.7740,162.7296,41.1420,319.8759,0,U,40968,999,12125,.23090487E-3,.2837E-4,0
SNAP-3 ALICE,2015-058G,2026-07-17T20:46:31.897344,15.67750448,.00251925,64.7499,357.2559,346.5767,13.4709,0,U,40970,999,12168,.85474217E-3,.96808E-3,0
LMRST-SAT,2015-058H,2026-07-17T13:33:39.378240,14.90711305,.0134107,64.7732,180.9639,46.9094,314.3147,0,U,40971,999,11808,.14526E-3,.1515E-4,0
SNAP-3 EDDIE,2015-058J,2026-07-17T19:56:24.016128,15.69169555,.00263573,64.7410,347.8654,349.2904,10.7681,0,U,40972,999,12382,.85238224E-3,.102609E-2,0
PROPCUBE 3,2015-058K,2026-07-17T20:38:43.303488,14.94429277,.01259752,64.7677,156.6880,47.9908,313.1849,0,U,40973,999,11938,.20321757E-3,.2386E-4,0
BISONSAT,2015-058L,2026-07-17T21:26:51.223488,15.16975552,.00823946,64.7580,74.3016,34.7059,325.9402,0,U,40974,999,12027,.36314541E-3,.7654E-4,0
SNAP-3 JIMI,2015-058M,2026-07-17T22:34:32.426976,15.02632410,.01080545,64.7648,122.4450,43.2768,317.6774,0,U,40975,999,11884,.27337966E-3,.3958E-4,0
PROPCUBE 1 (FLORA),2015-058N,2026-07-17T09:55:35.107392,14.89334482,.0132648,64.7717,201.5466,49.2408,312.0126,0,U,40976,999,12076,.13141E-3,.1295E-4,0
SINOD-D 3,2015-058P,2026-07-17T23:07:47.959392,14.94187016,.01212873,64.7708,179.6992,46.0746,315.0300,0,U,40977,999,11935,.19740565E-3,.227E-4,0
RAVAN,2016-067B,2026-07-16T16:29:31.011072,15.57575989,.00024225,97.9839,90.7306,209.8992,150.2123,0,U,41849,999,53228,.50617754E-3,.37324E-3,0
CELTEE 1,2016-067C,2026-07-17T02:20:44.375712,15.19951703,.00023622,98.0628,66.7044,107.7309,252.4182,0,U,41850,999,53042,.13018474E-3,.2721E-4,0
OPTICUBE 04,2016-067D,2026-07-17T19:58:40.592064,15.09777825,.00159755,98.0673,52.7129,19.3728,340.8104,0,U,41851,999,52979,.60599495E-4,.909E-5,0
AEROCUBE 8D,2016-067E,2026-07-17T02:00:47.829024,15.24785915,.00044749,98.0637,70.5317,51.9450,308.2189,0,U,41852,999,53062,.16734226E-3,.4067E-4,0
AEROCUBE 8C,2016-067F,2026-07-17T02:29:38.963616,15.25039218,.0004029,98.0511,67.7427,334.0627,26.0407,0,U,41853,999,53062,.15744E-3,.3851E-4,0
CORVUS BC2,2017-042X,2026-07-17T16:25:24.055680,15.06462559,.00131969,97.4093,358.8567,14.6637,345.4971,0,U,42846,999,49165,.76839109E-4,.1076E-4,0
CORVUS BC1,2017-042Y,2026-07-17T20:59:43.759392,15.06627864,.00113619,97.4125,359.8738,350.4727,9.6284,0,U,42847,999,49171,.1116308E-3,.1597E-4,0
MAKERSAT 0,2017-073D,2026-07-17T22:22:14.991744,15.33071683,.01055838,97.4572,81.7042,162.5490,197.9426,0,U,43016,999,47117,.29470365E-3,.11173E-3,0
SIRION PATHFINDER-2,2018-099B,2026-07-17T08:56:15.309024,15.14786252,.0008681,97.4235,246.7144,183.7729,176.3440,0,U,43759,999,41719,.1086E-3,.1952E-4,0
CORVUS BC4,2018-099K,2026-07-17T02:08:44.063232,15.12709455,.0006573,97.4048,240.1958,252.7668,107.2844,0,U,43767,999,41692,.10409E-3,.176E-4,0
